[{"OBJECT_NAME":"STARLINK-31666","OBJECT_ID":"2024-076J","EPOCH":"2026-03-09T04:06:12.654720","MEAN_MOTION":15.27577145,"ECCENTRICITY":0.00011205,"INCLINATION":43.0036,"RA_OF_ASC_NODE":4.9544,"ARG_OF_PERICENTER":268.9882,"MEAN_ANOMALY":91.0841,"EPHEMERIS_TYPE":0,"CLASSIFICATION_TYPE":"U","NORAD_CAT_ID":59572,"ELEMENT_SET_NO":999,"REV_AT_EPOCH":10650,"BSTAR":-5.4722042e-5,"MEAN_MOTION_DOT":-1.767e-5,"MEAN_MOTION_DDOT":0},{"OBJECT_NAME":"OTTER","OBJECT_ID":"2025-009Q","EPOCH":"2026-03-09T17:21:07.902432","MEAN_MOTION":15.27809545,"ECCENTRICITY":0.00035728,"INCLINATION":97.4065,"RA_OF_ASC_NODE":151.3812,"ARG_OF_PERICENTER":310.771,"MEAN_ANOMALY":49.3219,"EPHEMERIS_TYPE":0,"CLASSIFICATION_TYPE":"U","NORAD_CAT_ID":62623,"ELEMENT_SET_NO":999,"REV_AT_EPOCH":6372,"BSTAR":0.00045151206,"MEAN_MOTION_DOT":0.00012198,"MEAN_MOTION_DDOT":0}]
